FENGYUN 1C              
1 25730U 99025A   21265.51720728  .00000478  00000-0  26355-3 0  9993
2 25730  99.0488 289.8969 0015310 134.4101   0.2944 14.16364543152769
ISS (ZARYA)             
1 25544U 98067A   21265.41710065  .00001884  00000-0  43161-4 0  9990
2 25544  51.6442 221.9729 0003477  40.6225 104.9818 15.48422570303663